{"type": "FeatureCollection", "features": [{"type": "Feature", "properties": {"name": "台州楼 Taizhou Hall", "styleUrl": "#m_ylw-pushpin0"}, "geometry": {"type": "Point", "coordinates": [113.9907631537436, 22.59765486387274, 0.0]}}, {"type": "Feature", "properties": {"name": "生物楼 Biology Bldg", "styleUrl": "#m_ylw-pushpin0"}, "geometry": {"type": "Point", "coordinates": [113.9908425567642, 22.59820964385288, 0.0]}}, {"type": "Feature", "properties": {"name": "第二科研楼 Research Building 2", "styleUrl": "#m_ylw-pushpin0"}, "geometry": {"type": "Point", "coordinates": [113.9910641569347, 22.59875275615553, 0.0]}}, {"type": "Feature", "properties": {"name": "第一科研楼 Research Building 1", "styleUrl": "#m_ylw-pushpin0"}, "geometry": {"type": "Point", "coordinates": [113.9915748907359, 22.59932174085947, 0.0]}}, {"type": "Feature", "properties": {"name": "琳恩图书馆 LYNN Lib", "styleUrl": "#m_ylw-pushpin0"}, "geometry": {"type": "Point", "coordinates": [113.9933731088948, 22.59797885174465, 0.0]}}, {"type": "Feature", "properties": {"name": "行政楼 Administration Bldg.", "styleUrl": "#m_ylw-pushpin0"}, "geometry": {"type": "Point", "coordinates": [113.9931525947498, 22.59730826604403, 0.0]}}, {"type": "Feature", "properties": {"name": "理学院 College of Science", "styleUrl": "#m_ylw-pushpin0"}, "geometry": {"type": "Point", "coordinates": [113.994122602933, 22.59687557282208, 0.0]}}, {"type": "Feature", "properties": {"name": "商学院 College of Business", "styleUrl": "#m_ylw-pushpin0"}, "geometry": {"type": "Point", "coordinates": [113.9956660326321, 22.59855813834066, 0.0]}}, {"type": "Feature", "properties": {"name": "人文社科学院 School of Humanities and Social Sciences", "styleUrl": "#m_ylw-pushpin0"}, "geometry": {"type": "Point", "coordinates": [113.9969043006462, 22.6004629960415, 0.0]}}, {"type": "Feature", "properties": {"name": "行政楼2 Administration Bldg 2", "styleUrl": "#m_ylw-pushpin0"}, "geometry": {"type": "Point", "coordinates": [113.9965436196498, 22.60131854499912, 0.0]}}, {"type": "Feature", "properties": {"name": "一丹图书馆 Yidan Library", "styleUrl": "#m_ylw-pushpin"}, "geometry": {"type": "Point", "coordinates": [113.9931979856845, 22.60036695712506, 0.0]}}, {"type": "Feature", "properties": {"name": "南科大中心 SUSTech Center", "styleUrl": "#m_ylw-pushpin"}, "geometry": {"type": "Point", "coordinates": [113.9923345196037, 22.59998770717294, 0.0]}}, {"type": "Feature", "properties": {"name": "食堂 Cateen", "styleUrl": "#m_ylw-pushpin"}, "geometry": {"type": "Point", "coordinates": [113.9927883819649, 22.59966968372195, 0.0]}}, {"type": "Feature", "properties": {"name": "风雨操场 Playground", "styleUrl": "#m_ylw-pushpin"}, "geometry": {"type": "Point", "coordinates": [113.994816978185, 22.60185680880889, 0.0]}}, {"type": "Feature", "properties": {"name": "第一教学楼 Lecture Hall 1", "styleUrl": "#m_ylw-pushpin"}, "geometry": {"type": "Point", "coordinates": [113.9922702841826, 22.5988846578466, 0.0]}}, {"type": "Feature", "properties": {"name": "第二教学楼 Lecture Hall 2", "styleUrl": "#m_ylw-pushpin"}, "geometry": {"type": "Point", "coordinates": [113.9918579476737, 22.59755416724839, 0.0]}}, {"type": "Feature", "properties": {"name": "第三教学楼 Lecture Hall 3", "styleUrl": "#m_ylw-pushpin"}, "geometry": {"type": "Point", "coordinates": [113.9949015660505, 22.59899611118461, 0.0]}}, {"type": "Feature", "properties": {"name": "荔园 Lychee Hill 1", "styleUrl": "#m_ylw-pushpin"}, "geometry": {"type": "Point", "coordinates": [113.9950113421513, 22.60700091013526, 0.0]}}, {"type": "Feature", "properties": {"name": "荔园 Lychee Hill 2", "styleUrl": "#m_ylw-pushpin"}, "geometry": {"type": "Point", "coordinates": [113.9950636225548, 22.60730764195983, 0.0]}}, {"type": "Feature", "properties": {"name": "荔园 Lychee Hill 3", "styleUrl": "#m_ylw-pushpin"}, "geometry": {"type": "Point", "coordinates": [113.9951584942216, 22.60762328091417, 0.0]}}, {"type": "Feature", "properties": {"name": "荔园 Lychee Hill 4", "styleUrl": "#m_ylw-pushpin"}, "geometry": {"type": "Point", "coordinates": [113.9945415511727, 22.60731224355823, 0.0]}}, {"type": "Feature", "properties": {"name": "荔园 Lychee Hill 6", "styleUrl": "#m_ylw-pushpin"}, "geometry": {"type": "Point", "coordinates": [113.9945731132471, 22.60771970512268, 0.0]}}, {"type": "Feature", "properties": {"name": "荔园 Lychee Hill 7", "styleUrl": "#m_ylw-pushpin"}, "geometry": {"type": "Point", "coordinates": [113.9945899115783, 22.60815940114856, 0.0]}}, {"type": "Feature", "properties": {"name": "荔园 Lychee Hill 8", "styleUrl": "#m_ylw-pushpin"}, "geometry": {"type": "Point", "coordinates": [113.9949128536457, 22.60832151568041, 0.0]}}, {"type": "Feature", "properties": {"name": "荔园 Lychee Hill 9", "styleUrl": "#m_ylw-pushpin"}, "geometry": {"type": "Point", "coordinates": [113.9951178755016, 22.60803107161255, 0.0]}}, {"type": "Feature", "properties": {"name": "创园 ChuangYuan 1", "styleUrl": "#m_ylw-pushpin"}, "geometry": {"type": "Point", "coordinates": [113.9974300807139, 22.60645615496597, 0.0]}}, {"type": "Feature", "properties": {"name": "创园 ChuangYuan 2", "styleUrl": "#m_ylw-pushpin"}, "geometry": {"type": "Point", "coordinates": [113.9973344142933, 22.60629682009857, 0.0]}}, {"type": "Feature", "properties": {"name": "创园 ChuangYuan 4", "styleUrl": "#m_ylw-pushpin"}, "geometry": {"type": "Point", "coordinates": [113.9968632570269, 22.60644601606944, 0.0]}}, {"type": "Feature", "properties": {"name": "创园 ChuangYuan 5", "styleUrl": "#m_ylw-pushpin"}, "geometry": {"type": "Point", "coordinates": [113.9963998056258, 22.60729882670885, 0.0]}}, {"type": "Feature", "properties": {"name": "创园 ChuangYuan 6", "styleUrl": "#m_ylw-pushpin"}, "geometry": {"type": "Point", "coordinates": [113.9963385227664, 22.60701162881869, 0.0]}}, {"type": "Feature", "properties": {"name": "创园 ChuangYuan 7", "styleUrl": "#m_ylw-pushpin"}, "geometry": {"type": "Point", "coordinates": [113.9962267952793, 22.60671501752677, 0.0]}}, {"type": "Feature", "properties": {"name": "创园 ChuangYuan 8", "styleUrl": "#m_ylw-pushpin"}, "geometry": {"type": "Point", "coordinates": [113.9957634599221, 22.60745060405609, 0.0]}}, {"type": "Feature", "properties": {"name": "创园 ChuangYuan 9", "styleUrl": "#m_ylw-pushpin"}, "geometry": {"type": "Point", "coordinates": [113.9956686449012, 22.60715452726275, 0.0]}}, {"type": "Feature", "properties": {"name": "创园 ChuangYuan 10", "styleUrl": "#m_ylw-pushpin"}, "geometry": {"type": "Point", "coordinates": [113.9956031349589, 22.60686719416151, 0.0]}}, {"type": "Feature", "properties": {"name": "慧园 HuiYuan 1", "styleUrl": "#m_ylw-pushpin"}, "geometry": {"type": "Point", "coordinates": [113.9985240265514, 22.60697534450349, 0.0]}}, {"type": "Feature", "properties": {"name": "慧园 HuiYuan 2", "styleUrl": "#m_ylw-pushpin"}, "geometry": {"type": "Point", "coordinates": [113.9986105034714, 22.60783775980513, 0.0]}}, {"type": "Feature", "properties": {"name": "慧园 HuiYuan 3", "styleUrl": "#m_ylw-pushpin"}, "geometry": {"type": "Point", "coordinates": [113.9982101484446, 22.60699275821627, 0.0]}}, {"type": "Feature", "properties": {"name": "慧园 HuiYuan 4", "styleUrl": "#m_ylw-pushpin"}, "geometry": {"type": "Point", "coordinates": [113.9982989211118, 22.60767940283904, 0.0]}}, {"type": "Feature", "properties": {"name": "慧园 HuiYuan 5", "styleUrl": "#m_ylw-pushpin"}, "geometry": {"type": "Point", "coordinates": [113.9979000630204, 22.60702201431165, 0.0]}}, {"type": "Feature", "properties": {"name": "慧园 HuiYuan 6", "styleUrl": "#m_ylw-pushpin"}, "geometry": {"type": "Point", "coordinates": [113.9979821184581, 22.60766155499116, 0.0]}}, {"type": "Feature", "properties": {"name": "慧园 HuiYuan 7", "styleUrl": "#m_ylw-pushpin"}, "geometry": {"type": "Point", "coordinates": [113.9979414860913, 22.60636293907001, 0.0]}}, {"type": "Feature", "properties": {"name": "欣园 Joy Highland 1", "styleUrl": "#m_ylw-pushpin"}, "geometry": {"type": "Point", "coordinates": [113.9975874687464, 22.61091646294405, 0.0]}}, {"type": "Feature", "properties": {"name": "欣园 Joy Highland 2", "styleUrl": "#m_ylw-pushpin"}, "geometry": {"type": "Point", "coordinates": [113.9973705751732, 22.61112280100105, 0.0]}}, {"type": "Feature", "properties": {"name": "欣园 Joy Highland 3", "styleUrl": "#m_ylw-pushpin"}, "geometry": {"type": "Point", "coordinates": [113.9971450848699, 22.61133731708208, 0.0]}}, {"type": "Feature", "properties": {"name": "欣园 Joy Highland 4", "styleUrl": "#m_ylw-pushpin"}, "geometry": {"type": "Point", "coordinates": [113.9969120450964, 22.61151333399933, 0.0]}}, {"type": "Feature", "properties": {"name": "欣园 Joy Highland 5", "styleUrl": "#m_ylw-pushpin"}, "geometry": {"type": "Point", "coordinates": [113.9969860541597, 22.61077469869861, 0.0]}}, {"type": "Feature", "properties": {"name": "网球场", "styleUrl": "#m_ylw-pushpin"}, "geometry": {"type": "Point", "coordinates": [113.998763139297, 22.60905973757128, 0.0]}}, {"type": "Feature", "properties": {"name": "篮球场", "styleUrl": "#m_ylw-pushpin"}, "geometry": {"type": "Point", "coordinates": [113.9993135696368, 22.60736451833002, 0.0]}}, {"type": "Feature", "properties": {"name": "教师公寓 Faculty Apartment 1", "styleUrl": "#m_ylw-pushpin"}, "geometry": {"type": "Point", "coordinates": [113.997065373439, 22.60291952355365, 0.0]}}, {"type": "Feature", "properties": {"name": "教师公寓 Faculty Apartment 2", "styleUrl": "#m_ylw-pushpin"}, "geometry": {"type": "Point", "coordinates": [113.9976508912237, 22.60313589497749, 0.0]}}, {"type": "Feature", "properties": {"name": "教师公寓 Faculty Apartment 3", "styleUrl": "#m_ylw-pushpin"}, "geometry": {"type": "Point", "coordinates": [113.9972184049903, 22.60249947987196, 0.0]}}, {"type": "Feature", "properties": {"name": "教师公寓 Faculty Apartment 4", "styleUrl": "#m_ylw-pushpin"}, "geometry": {"type": "Point", "coordinates": [113.99770184724, 22.60269478730844, 0.0]}}, {"type": "Feature", "properties": {"name": "教师公寓 Faculty Apartment 5", "styleUrl": "#m_ylw-pushpin"}, "geometry": {"type": "Point", "coordinates": [113.9972808439828, 22.60205395553942, 0.0]}}, {"type": "Feature", "properties": {"name": "教师公寓 Faculty Apartment 6", "styleUrl": "#m_ylw-pushpin"}, "geometry": {"type": "Point", "coordinates": [113.9979024750906, 22.60221440188855, 0.0]}}, {"type": "Feature", "properties": {"name": "专家公寓 Guest House 1", "styleUrl": "#m_ylw-pushpin"}, "geometry": {"type": "Point", "coordinates": [113.9974939333906, 22.60163313339219, 0.0]}}, {"type": "Feature", "properties": {"name": "教师公寓 Faculty Apartment 2", "styleUrl": "#m_ylw-pushpin"}, "geometry": {"type": "Point", "coordinates": [113.9980828983785, 22.6017726719234, 0.0]}}, {"type": "Feature", "properties": {"name": "宿舍 Dorm Block 1", "styleUrl": "#m_ylw-pushpin"}, "geometry": {"type": "Point", "coordinates": [113.9935577078307, 22.60204436704687, 0.0]}}, {"type": "Feature", "properties": {"name": "宿舍 Dorm Block 2", "styleUrl": "#m_ylw-pushpin"}, "geometry": {"type": "Point", "coordinates": [113.9936615061042, 22.60256709207901, 0.0]}}, {"type": "Feature", "properties": {"name": "宿舍 Dorm Block 3", "styleUrl": "#m_ylw-pushpin"}, "geometry": {"type": "Point", "coordinates": [113.9933563695198, 22.60313627638934, 0.0]}}, {"type": "Feature", "properties": {"name": "宿舍 Dorm Block 4", "styleUrl": "#m_ylw-pushpin"}, "geometry": {"type": "Point", "coordinates": [113.9938187745061, 22.60355736453147, 0.0]}}, {"type": "Feature", "properties": {"name": "宿舍 Dorm Block 5", "styleUrl": "#m_ylw-pushpin"}, "geometry": {"type": "Point", "coordinates": [113.9942119766206, 22.60387971448749, 0.0]}}, {"type": "Feature", "properties": {"name": "宿舍 Dorm Block 6", "styleUrl": "#m_ylw-pushpin"}, "geometry": {"type": "Point", "coordinates": [113.9945108166665, 22.60360673914736, 0.0]}}, {"type": "Feature", "properties": {"name": "宿舍 Dorm Block 7", "styleUrl": "#m_ylw-pushpin"}, "geometry": {"type": "Point", "coordinates": [113.9922616620257, 22.60422235995791, 0.0]}}, {"type": "Feature", "properties": {"name": "宿舍 Dorm Block 8", "styleUrl": "#m_ylw-pushpin"}, "geometry": {"type": "Point", "coordinates": [113.9923175274251, 22.60470923605414, 0.0]}}, {"type": "Feature", "properties": {"name": "宿舍 Dorm Block 9", "styleUrl": "#m_ylw-pushpin"}, "geometry": {"type": "Point", "coordinates": [113.9928876431837, 22.60450115768556, 0.0]}}, {"type": "Feature", "properties": {"name": "宿舍 Dorm Block 10", "styleUrl": "#m_ylw-pushpin"}, "geometry": {"type": "Point", "coordinates": [113.9933109778568, 22.60484820237446, 0.0]}}, {"type": "Feature", "properties": {"name": "宿舍 Dorm Block 11", "styleUrl": "#m_ylw-pushpin"}, "geometry": {"type": "Point", "coordinates": [113.9941226436831, 22.60503138537687, 0.0]}}, {"type": "Feature", "properties": {"name": "宿舍 Dorm Block 12", "styleUrl": "#m_ylw-pushpin"}, "geometry": {"type": "Point", "coordinates": [113.9947209753874, 22.60545173551884, 0.0]}}, {"type": "Feature", "properties": {"name": "宿舍 Dorm Block 13", "styleUrl": "#m_ylw-pushpin"}, "geometry": {"type": "Point", "coordinates": [113.9944537911504, 22.60443733292754, 0.0]}}, {"type": "Feature", "properties": {"name": "宿舍 Dorm Block 14", "styleUrl": "#m_ylw-pushpin"}, "geometry": {"type": "Point", "coordinates": [113.9949806225423, 22.60467356198323, 0.0]}}, {"type": "Feature", "properties": {"name": "宿舍 Dorm Block 15", "styleUrl": "#m_ylw-pushpin"}, "geometry": {"type": "Point", "coordinates": [113.9952891995979, 22.60504180349547, 0.0]}}, {"type": "Feature", "properties": {"name": "宿舍 Dorm Block 16", "styleUrl": "#m_ylw-pushpin"}, "geometry": {"type": "Point", "coordinates": [113.99577840247, 22.60526760762141, 0.0]}}, {"type": "Feature", "properties": {"name": "宿舍 Dorm Block 17", "styleUrl": "#m_ylw-pushpin"}, "geometry": {"type": "Point", "coordinates": [113.9958687225845, 22.60570880221054, 0.0]}}, {"type": "Feature", "properties": {"name": "润扬体育馆 RunYang Stadium", "styleUrl": "#m_ylw-pushpin"}, "geometry": {"type": "Point", "coordinates": [113.9991933544682, 22.60468132052073, 0.0]}}, {"type": "Feature", "properties": {"name": "松禾体育场 GP&CP Stadium", "styleUrl": "#m_ylw-pushpin"}, "geometry": {"type": "Point", "coordinates": [113.9982713915166, 22.60443469521305, 0.0]}}, {"type": "Feature", "properties": {"name": "棒球场 Baseball Field", "styleUrl": "#m_ylw-pushpin"}, "geometry": {"type": "Point", "coordinates": [113.9981621920037, 22.60088083905487, 0.0]}}], "name": "main"}