{"type": "FeatureCollection", "features": [{"type": "Feature", "properties": {"name": "\u4e00\u53f7\u95e8 Gate1", "styleUrl": "#m_ylw-pushpin"}, "geometry": {"type": "Point", "coordinates": [113.9944801104224, 22.59560217717079, 0.0]}}, {"type": "Feature", "properties": {"name": "\u4e8c\u53f7\u95e8 Gate2", "styleUrl": "#m_ylw-pushpin"}, "geometry": {"type": "Point", "coordinates": [113.9965006148086, 22.59732218938587, 0.0]}}, {"type": "Feature", "properties": {"name": "\u4e09\u53f7\u95e8 Gate3", "styleUrl": "#m_ylw-pushpin"}, "geometry": {"type": "Point", "coordinates": [113.9995141167612, 22.60012903298195, 0.0]}}, {"type": "Feature", "properties": {"name": "\u56db\u53f7\u95e8 Gate4", "styleUrl": "#m_ylw-pushpin"}, "geometry": {"type": "Point", "coordinates": [114.0024938223459, 22.59964122261607, 0.0]}}, {"type": "Feature", "properties": {"name": "\u4e94\u53f7\u95e8 Gate5", "styleUrl": "#m_ylw-pushpin"}, "geometry": {"type": "Point", "coordinates": [113.9898698482805, 22.60500289590148, 0.0]}}, {"type": "Feature", "properties": {"name": "\u516d\u53f7\u95e8 Gate6", "styleUrl": "#m_ylw-pushpin"}, "geometry": {"type": "Point", "coordinates": [113.9916634797894, 22.5996927843014, 0.0]}}, {"type": "Feature", "properties": {"name": "\u4e03\u53f7\u95e8 Gate7", "styleUrl": "#m_ylw-pushpin"}, "geometry": {"type": "Point", "coordinates": [113.9901767710489, 22.59739021525446, 0.0]}}], "name": "main"}